[{"OBJECT_NAME":"GEESAT-4 03","OBJECT_ID":"2025-170C","EPOCH":"2026-03-09T22:09:07.867872","MEAN_MOTION":14.83663029,"ECCENTRICITY":0.00208622,"INCLINATION":49.9912,"RA_OF_ASC_NODE":274.3291,"ARG_OF_PERICENTER":40.9482,"MEAN_ANOMALY":319.3019,"EPHEMERIS_TYPE":0,"CLASSIFICATION_TYPE":"U","NORAD_CAT_ID":65121,"ELEMENT_SET_NO":999,"REV_AT_EPOCH":3169,"BSTAR":0.00035876344,"MEAN_MOTION_DOT":2.774e-5,"MEAN_MOTION_DDOT":0},{"OBJECT_NAME":"AETHER-4","OBJECT_ID":"2026-004N","EPOCH":"2026-03-09T23:25:23.871072","MEAN_MOTION":14.88037965,"ECCENTRICITY":0.00064882,"INCLINATION":97.8035,"RA_OF_ASC_NODE":69.2093,"ARG_OF_PERICENTER":90.2831,"MEAN_ANOMALY":269.9129,"EPHEMERIS_TYPE":0,"CLASSIFICATION_TYPE":"U","NORAD_CAT_ID":67375,"ELEMENT_SET_NO":999,"REV_AT_EPOCH":854,"BSTAR":0.00015024135,"MEAN_MOTION_DOT":1.326e-5,"MEAN_MOTION_DDOT":0}]
